{
  "type": "FeatureCollection",
  "features": [
    {
      "type": "Feature",
      "properties": {
        "norad_id": 38250,
        "name": "BEIDOU-2 M3 (C11)",
        "group": "beidou",
        "lat": 18.185176274543863,
        "lon": -36.508134291404716,
        "alt_km": 21544.978642753173,
        "timestamp": "2025-12-27T09:28:56.741606+00:00",
        "meta_object_name": "BEIDOU-2 M3 (C11)",
        "meta_object_id": "2012-018A",
        "meta_epoch": "2025-12-26T06:54:56.796768",
        "meta_mean_motion": 1.86230094,
        "meta_eccentricity": 0.002406,
        "meta_inclination": 55.9085,
        "meta_ra_of_asc_node": 310.7027,
        "meta_arg_of_pericenter": 275.5278,
        "meta_mean_anomaly": 84.2034,
        "meta_ephemeris_type": 0,
        "meta_classification_type": "U",
        "meta_norad_cat_id": 38250,
        "meta_element_set_no": 999,
        "meta_rev_at_epoch": 9272,
        "meta_bstar": 0,
        "meta_mean_motion_dot": -5.6e-07,
        "meta_mean_motion_ddot": 0,
        "tle_line1": "1 38250U 12018A   25360.28815737 -.00000056  00000+0  00000+0 0  9997",
        "tle_line2": "2 38250  55.9085 310.7027 0024060 275.5278  84.2034  1.86230094 92724"
      },
      "geometry": {
        "type": "Point",
        "coordinates": [
          -36.508134291404716,
          18.185176274543863
        ]
      }
    },
    {
      "type": "Feature",
      "properties": {
        "norad_id": 38251,
        "name": "BEIDOU-2 M4 (C12)",
        "group": "beidou",
        "lat": 49.90214679283869,
        "lon": 3.6408064620601626,
        "alt_km": 21558.088624883178,
        "timestamp": "2025-12-27T09:28:56.741617+00:00",
        "meta_object_name": "BEIDOU-2 M4 (C12)",
        "meta_object_id": "2012-018B",
        "meta_epoch": "2025-12-26T05:17:08.086272",
        "meta_mean_motion": 1.86229697,
        "meta_eccentricity": 0.0015168,
        "meta_inclination": 55.8099,
        "meta_ra_of_asc_node": 309.9329,
        "meta_arg_of_pericenter": 279.7877,
        "meta_mean_anomaly": 80.0472,
        "meta_ephemeris_type": 0,
        "meta_classification_type": "U",
        "meta_norad_cat_id": 38251,
        "meta_element_set_no": 999,
        "meta_rev_at_epoch": 9272,
        "meta_bstar": 0,
        "meta_mean_motion_dot": -5.5e-07,
        "meta_mean_motion_ddot": 0,
        "tle_line1": "1 38251U 12018B   25360.22023248 -.00000055  00000+0  00000+0 0  9999",
        "tle_line2": "2 38251  55.8099 309.9329 0015168 279.7877  80.0472  1.86229697 92721"
      },
      "geometry": {
        "type": "Point",
        "coordinates": [
          3.6408064620601626,
          49.90214679283869
        ]
      }
    },
    {
      "type": "Feature",
      "properties": {
        "norad_id": 38775,
        "name": "BEIDOU-2 M6 (C14)",
        "group": "beidou",
        "lat": -55.45250858880031,
        "lon": -36.65052288851706,
        "alt_km": 21529.46136801298,
        "timestamp": "2025-12-27T09:28:56.741628+00:00",
        "meta_object_name": "BEIDOU-2 M6 (C14)",
        "meta_object_id": "2012-050B",
        "meta_epoch": "2025-12-24T07:41:05.368128",
        "meta_mean_motion": 1.86230801,
        "meta_eccentricity": 0.00114872,
        "meta_inclination": 56.388,
        "meta_ra_of_asc_node": 68.6832,
        "meta_arg_of_pericenter": 343.1884,
        "meta_mean_anomaly": 16.8281,
        "meta_ephemeris_type": 0,
        "meta_classification_type": "U",
        "meta_norad_cat_id": 38775,
        "meta_element_set_no": 999,
        "meta_rev_at_epoch": 9005,
        "meta_bstar": 0,
        "meta_mean_motion_dot": -2.4e-07,
        "meta_mean_motion_ddot": 0,
        "tle_line1": "1 38775U 12050B   25358.32020102 -.00000024  00000+0  00000+0 0  9996",
        "tle_line2": "2 38775  56.3880  68.6832 0011487 343.1884  16.8281  1.86230801 90056"
      },
      "geometry": {
        "type": "Point",
        "coordinates": [
          -36.65052288851706,
          -55.45250858880031
        ]
      }
    },
    {
      "type": "Feature",
      "properties": {
        "norad_id": 38953,
        "name": "BEIDOU-2 G6 (C02)",
        "group": "beidou",
        "lat": -3.6785286069398926,
        "lon": -37.80227975935724,
        "alt_km": 35762.99859104113,
        "timestamp": "2025-12-27T09:28:56.741640+00:00",
        "meta_object_name": "BEIDOU-2 G6 (C02)",
        "meta_object_id": "2012-059A",
        "meta_epoch": "2025-12-26T23:45:51.765408",
        "meta_mean_motion": 1.00274409,
        "meta_eccentricity": 0.0007949,
        "meta_inclination": 3.9833,
        "meta_ra_of_asc_node": 75.3705,
        "meta_arg_of_pericenter": 293.6669,
        "meta_mean_anomaly": 167.1065,
        "meta_ephemeris_type": 0,
        "meta_classification_type": "U",
        "meta_norad_cat_id": 38953,
        "meta_element_set_no": 999,
        "meta_rev_at_epoch": 4818,
        "meta_bstar": 0,
        "meta_mean_motion_dot": -1.55e-06,
        "meta_mean_motion_ddot": 0,
        "tle_line1": "1 38953U 12059A   25360.99018247 -.00000155  00000+0  00000+0 0  9991",
        "tle_line2": "2 38953   3.9833  75.3705 0007949 293.6669 167.1065  1.00274409 48187"
      },
      "geometry": {
        "type": "Point",
        "coordinates": [
          -37.80227975935724,
          -3.6785286069398926
        ]
      }
    },
    {
      "type": "Feature",
      "properties": {
        "norad_id": 40549,
        "name": "BEIDOU-3S IGSO-1S (C31)",
        "group": "beidou",
        "lat": 26.266531998622682,
        "lon": -37.60526111380374,
        "alt_km": 35921.28407456727,
        "timestamp": "2025-12-27T09:28:56.741651+00:00",
        "meta_object_name": "BEIDOU-3S IGSO-1S (C31)",
        "meta_object_id": "2015-019A",
        "meta_epoch": "2025-12-26T19:27:32.429664",
        "meta_mean_motion": 1.00290016,
        "meta_eccentricity": 0.00365106,
        "meta_inclination": 49.5251,
        "meta_ra_of_asc_node": 297.5457,
        "meta_arg_of_pericenter": 194.1839,
        "meta_mean_anomaly": 350.566,
        "meta_ephemeris_type": 0,
        "meta_classification_type": "U",
        "meta_norad_cat_id": 40549,
        "meta_element_set_no": 999,
        "meta_rev_at_epoch": 3934,
        "meta_bstar": 0,
        "meta_mean_motion_dot": -1.81e-06,
        "meta_mean_motion_ddot": 0,
        "tle_line1": "1 40549U 15019A   25360.81079201 -.00000181  00000+0  00000+0 0  9991",
        "tle_line2": "2 40549  49.5251 297.5457 0036510 194.1839 350.5660  1.00290016 39342"
      },
      "geometry": {
        "type": "Point",
        "coordinates": [
          -37.60526111380374,
          26.266531998622682
        ]
      }
    },
    {
      "type": "Feature",
      "properties": {
        "norad_id": 40748,
        "name": "BEIDOU-3S M2S (C58)",
        "group": "beidou",
        "lat": -50.301674602049324,
        "lon": -109.444799870272,
        "alt_km": 21502.514767724057,
        "timestamp": "2025-12-27T09:28:56.741663+00:00",
        "meta_object_name": "BEIDOU-3S M2S (C58)",
        "meta_object_id": "2015-037A",
        "meta_epoch": "2025-12-26T23:05:37.447872",
        "meta_mean_motion": 1.86229536,
        "meta_eccentricity": 0.0011828,
        "meta_inclination": 55.026,
        "meta_ra_of_asc_node": 307.9761,
        "meta_arg_of_pericenter": 271.2374,
        "meta_mean_anomaly": 88.6344,
        "meta_ephemeris_type": 0,
        "meta_classification_type": "U",
        "meta_norad_cat_id": 40748,
        "meta_element_set_no": 999,
        "meta_rev_at_epoch": 7091,
        "meta_bstar": 0,
        "meta_mean_motion_dot": -5.8e-07,
        "meta_mean_motion_ddot": 0,
        "tle_line1": "1 40748U 15037A   25360.96223898 -.00000058  00000+0  00000+0 0  9994",
        "tle_line2": "2 40748  55.0260 307.9761 0011828 271.2374  88.6344  1.86229536 70914"
      },
      "geometry": {
        "type": "Point",
        "coordinates": [
          -109.444799870272,
          -50.301674602049324
        ]
      }
    },
    {
      "type": "Feature",
      "properties": {
        "norad_id": 40749,
        "name": "BEIDOU-3S M1S (C57)",
        "group": "beidou",
        "lat": 33.796563750858965,
        "lon": 100.02024299320156,
        "alt_km": 21528.901963921595,
        "timestamp": "2025-12-27T09:28:56.741674+00:00",
        "meta_object_name": "BEIDOU-3S M1S (C57)",
        "meta_object_id": "2015-037B",
        "meta_epoch": "2025-12-26T02:48:07.376256",
        "meta_mean_motion": 1.86253839,
        "meta_eccentricity": 0.0003725,
        "meta_inclination": 55.0231,
        "meta_ra_of_asc_node": 307.9941,
        "meta_arg_of_pericenter": 3.0016,
        "meta_mean_anomaly": 357.0085,
        "meta_ephemeris_type": 0,
        "meta_classification_type": "U",
        "meta_norad_cat_id": 40749,
        "meta_element_set_no": 999,
        "meta_rev_at_epoch": 7090,
        "meta_bstar": 0,
        "meta_mean_motion_dot": -5.5e-07,
        "meta_mean_motion_ddot": 0,
        "tle_line1": "1 40749U 15037B   25360.11675204 -.00000055  00000+0  00000+0 0  9991",
        "tle_line2": "2 40749  55.0231 307.9941 0003725   3.0016 357.0085  1.86253839 70901"
      },
      "geometry": {
        "type": "Point",
        "coordinates": [
          100.02024299320156,
          33.796563750858965
        ]
      }
    }
  ]
}